{
  "type": "FeatureCollection",
  "features": [
    {
      "type": "Feature",
      "properties": {
        "norad_id": 29869,
        "name": "FENGYUN 1C DEB",
        "group": "fengyun-1c-debris",
        "lat": -27.768274314008835,
        "lon": 99.06908107777028,
        "alt_km": 824.6713511713851,
        "timestamp": "2025-12-19T06:59:44.180353+00:00",
        "meta_object_name": "FENGYUN 1C DEB",
        "meta_object_id": "1999-025FP",
        "meta_epoch": "2025-12-18T18:34:25.386816",
        "meta_mean_motion": 14.36899335,
        "meta_eccentricity": 0.00872965,
        "meta_inclination": 98.8738,
        "meta_ra_of_asc_node": 283.2541,
        "meta_arg_of_pericenter": 353.347,
        "meta_mean_anomaly": 59.4469,
        "meta_ephemeris_type": 0,
        "meta_classification_type": "U",
        "meta_norad_cat_id": 29869,
        "meta_element_set_no": 999,
        "meta_rev_at_epoch": 98907,
        "meta_bstar": 0.00031634114,
        "meta_mean_motion_dot": 9.29e-06,
        "meta_mean_motion_ddot": 0,
        "tle_line1": "1 29869U 99025FP  25352.77390494  .00000929  00000+0  31634-3 0  9998",
        "tle_line2": "2 29869  98.8738 283.2541 0087296 353.3470  59.4469 14.36899335989072"
      },
      "geometry": {
        "type": "Point",
        "coordinates": [
          99.06908107777028,
          -27.768274314008835
        ]
      }
    },
    {
      "type": "Feature",
      "properties": {
        "norad_id": 29870,
        "name": "FENGYUN 1C DEB",
        "group": "fengyun-1c-debris",
        "lat": 49.75369282540167,
        "lon": -46.11093343233631,
        "alt_km": 836.1937980572948,
        "timestamp": "2025-12-19T06:59:44.180363+00:00",
        "meta_object_name": "FENGYUN 1C DEB",
        "meta_object_id": "1999-025FQ",
        "meta_epoch": "2025-12-18T20:58:14.899584",
        "meta_mean_motion": 14.28982308,
        "meta_eccentricity": 0.01202298,
        "meta_inclination": 98.4608,
        "meta_ra_of_asc_node": 323.6117,
        "meta_arg_of_pericenter": 174.3152,
        "meta_mean_anomaly": 249.8672,
        "meta_ephemeris_type": 0,
        "meta_classification_type": "U",
        "meta_norad_cat_id": 29870,
        "meta_element_set_no": 999,
        "meta_rev_at_epoch": 98681,
        "meta_bstar": 3.9745407e-05,
        "meta_mean_motion_dot": 6.6e-07,
        "meta_mean_motion_ddot": 0,
        "tle_line1": "1 29870U 99025FQ  25352.87378356  .00000066  00000+0  39745-4 0  9998",
        "tle_line2": "2 29870  98.4608 323.6117 0120229 174.3152 249.8672 14.28982308986810"
      },
      "geometry": {
        "type": "Point",
        "coordinates": [
          -46.11093343233631,
          49.75369282540167
        ]
      }
    },
    {
      "type": "Feature",
      "properties": {
        "norad_id": 29871,
        "name": "FENGYUN 1C DEB",
        "group": "fengyun-1c-debris",
        "lat": -35.49577023504167,
        "lon": -46.77007604545492,
        "alt_km": 779.3720788940209,
        "timestamp": "2025-12-19T06:59:44.180375+00:00",
        "meta_object_name": "FENGYUN 1C DEB",
        "meta_object_id": "1999-025FR",
        "meta_epoch": "2025-12-18T19:38:39.153408",
        "meta_mean_motion": 14.42672683,
        "meta_eccentricity": 0.00589399,
        "meta_inclination": 98.9734,
        "meta_ra_of_asc_node": 306.262,
        "meta_arg_of_pericenter": 89.7115,
        "meta_mean_anomaly": 299.8942,
        "meta_ephemeris_type": 0,
        "meta_classification_type": "U",
        "meta_norad_cat_id": 29871,
        "meta_element_set_no": 999,
        "meta_rev_at_epoch": 98789,
        "meta_bstar": 0.00067390029,
        "meta_mean_motion_dot": 2.24e-05,
        "meta_mean_motion_ddot": 0,
        "tle_line1": "1 29871U 99025FR  25352.81850872  .00002240  00000+0  67390-3 0  9993",
        "tle_line2": "2 29871  98.9734 306.2620 0058939  89.7115 299.8942 14.42672683987890"
      },
      "geometry": {
        "type": "Point",
        "coordinates": [
          -46.77007604545492,
          -35.49577023504167
        ]
      }
    },
    {
      "type": "Feature",
      "properties": {
        "norad_id": 29872,
        "name": "FENGYUN 1C DEB",
        "group": "fengyun-1c-debris",
        "lat": 54.90214653495349,
        "lon": -2.966056610632024,
        "alt_km": 842.7195915774964,
        "timestamp": "2025-12-19T06:59:44.180385+00:00",
        "meta_object_name": "FENGYUN 1C DEB",
        "meta_object_id": "1999-025FS",
        "meta_epoch": "2025-12-18T14:02:55.281984",
        "meta_mean_motion": 14.38981899,
        "meta_eccentricity": 0.02350456,
        "meta_inclination": 98.3448,
        "meta_ra_of_asc_node": 8.4019,
        "meta_arg_of_pericenter": 295.9593,
        "meta_mean_anomaly": 61.7549,
        "meta_ephemeris_type": 0,
        "meta_classification_type": "U",
        "meta_norad_cat_id": 29872,
        "meta_element_set_no": 999,
        "meta_rev_at_epoch": 98676,
        "meta_bstar": 0.0004376716,
        "meta_mean_motion_dot": 1.811e-05,
        "meta_mean_motion_ddot": 0,
        "tle_line1": "1 29872U 99025FS  25352.58536206  .00001811  00000+0  43767-3 0  9995",
        "tle_line2": "2 29872  98.3448   8.4019 0235045 295.9593  61.7549 14.38981899986767"
      },
      "geometry": {
        "type": "Point",
        "coordinates": [
          -2.966056610632024,
          54.90214653495349
        ]
      }
    },
    {
      "type": "Feature",
      "properties": {
        "norad_id": 29873,
        "name": "FENGYUN 1C DEB",
        "group": "fengyun-1c-debris",
        "lat": -69.82473915655524,
        "lon": 6.628579742207303,
        "alt_km": 885.070102749115,
        "timestamp": "2025-12-19T06:59:44.180395+00:00",
        "meta_object_name": "FENGYUN 1C DEB",
        "meta_object_id": "1999-025FT",
        "meta_epoch": "2025-12-18T14:36:42.632928",
        "meta_mean_motion": 13.9814876,
        "meta_eccentricity": 0.00925104,
        "meta_inclination": 99.4413,
        "meta_ra_of_asc_node": 212.8531,
        "meta_arg_of_pericenter": 182.8016,
        "meta_mean_anomaly": 234.0629,
        "meta_ephemeris_type": 0,
        "meta_classification_type": "U",
        "meta_norad_cat_id": 29873,
        "meta_element_set_no": 999,
        "meta_rev_at_epoch": 96397,
        "meta_bstar": 0.00012361833,
        "meta_mean_motion_dot": 1.35e-06,
        "meta_mean_motion_ddot": 0,
        "tle_line1": "1 29873U 99025FT  25352.60882677  .00000135  00000+0  12362-3 0  9990",
        "tle_line2": "2 29873  99.4413 212.8531 0092510 182.8016 234.0629 13.98148760963973"
      },
      "geometry": {
        "type": "Point",
        "coordinates": [
          6.628579742207303,
          -69.82473915655524
        ]
      }
    },
    {
      "type": "Feature",
      "properties": {
        "norad_id": 29874,
        "name": "FENGYUN 1C DEB",
        "group": "fengyun-1c-debris",
        "lat": 65.22944689818206,
        "lon": 88.55340180440542,
        "alt_km": 847.4439156596591,
        "timestamp": "2025-12-19T06:59:44.180405+00:00",
        "meta_object_name": "FENGYUN 1C DEB",
        "meta_object_id": "1999-025FU",
        "meta_epoch": "2025-12-18T04:18:20.827872",
        "meta_mean_motion": 14.28889846,
        "meta_eccentricity": 0.01047027,
        "meta_inclination": 98.3795,
        "meta_ra_of_asc_node": 248.8564,
        "meta_arg_of_pericenter": 335.1902,
        "meta_mean_anomaly": 180.1406,
        "meta_ephemeris_type": 0,
        "meta_classification_type": "U",
        "meta_norad_cat_id": 29874,
        "meta_element_set_no": 999,
        "meta_rev_at_epoch": 96925,
        "meta_bstar": 0.0023125514,
        "meta_mean_motion_dot": 6.154e-05,
        "meta_mean_motion_ddot": 0,
        "tle_line1": "1 29874U 99025FU  25352.17940773  .00006154  00000+0  23126-2 0  9991",
        "tle_line2": "2 29874  98.3795 248.8564 0104702 335.1902 180.1406 14.28889846969256"
      },
      "geometry": {
        "type": "Point",
        "coordinates": [
          88.55340180440542,
          65.22944689818206
        ]
      }
    },
    {
      "type": "Feature",
      "properties": {
        "norad_id": 29875,
        "name": "FENGYUN 1C DEB",
        "group": "fengyun-1c-debris",
        "lat": -43.57598537159213,
        "lon": -143.6486453346249,
        "alt_km": 875.1642518906774,
        "timestamp": "2025-12-19T06:59:44.180433+00:00",
        "meta_object_name": "FENGYUN 1C DEB",
        "meta_object_id": "1999-025FV",
        "meta_epoch": "2025-12-18T17:03:11.575296",
        "meta_mean_motion": 14.24879291,
        "meta_eccentricity": 0.00829523,
        "meta_inclination": 98.4044,
        "meta_ra_of_asc_node": 43.8816,
        "meta_arg_of_pericenter": 46.0026,
        "meta_mean_anomaly": 79.8433,
        "meta_ephemeris_type": 0,
        "meta_classification_type": "U",
        "meta_norad_cat_id": 29875,
        "meta_element_set_no": 999,
        "meta_rev_at_epoch": 98407,
        "meta_bstar": 2.5459581e-05,
        "meta_mean_motion_dot": 2e-07,
        "meta_mean_motion_ddot": 0,
        "tle_line1": "1 29875U 99025FV  25352.71055064  .00000020  00000+0  25460-4 0  9993",
        "tle_line2": "2 29875  98.4044  43.8816 0082952  46.0026  79.8433 14.24879291984075"
      },
      "geometry": {
        "type": "Point",
        "coordinates": [
          -143.6486453346249,
          -43.57598537159213
        ]
      }
    }
  ]
}